NORAD_CAT_ID,OBJECT_NAME,OBJECT_TYPE,EPOCH,MEAN_MOTION,ECCENTRICITY,INCLINATION,RA_OF_ASC_NODE,ARG_OF_PERICENTER,MEAN_ANOMALY,BSTAR,MEAN_MOTION_DOT,MEAN_MOTION_DDOT,TLE_LINE0,TLE_LINE1,TLE_LINE2,SEMIMAJOR_AXIS,PERIOD,APOGEE,PERIGEE,DECAYED
55420.0,STARLINK-5604,PAYLOAD,2023-08-13 12:08:55,15.69912035,0.0004683,69.9977,264.7628,257.2908,102.7764,1.4075e-07,-1.97e-06,0.0,0 STARLINK-5604,1 55420U 23014AF  23225.50619712 -.00000197  00000-0  14075-6 0  9992,2 55420  69.9977 264.7628 0004683 257.2908 102.7764 15.69912035 30623,6737.286,91.725,362.306,355.996,0.0
55420.0,STARLINK-5604,PAYLOAD,2023-08-14 01:54:42,15.69913,0.0003336,69.9967,263.149,266.831,93.2504,4.5376e-07,-1.58e-06,0.0,0 STARLINK-5604,1 55420U 23014AF  23226.07966181 -.00000158  00000-0  45376-6 0  9995,2 55420  69.9967 263.1490 0003336 266.8310  93.2504 15.69913000 30718,6737.283,91.725,361.395,356.9,0.0
55420.0,STARLINK-5604,PAYLOAD,2023-08-14 11:05:11,15.69937533,0.0002988,69.997,262.0747,252.9423,107.1445,2.4221e-05,2.702e-05,0.0,0 STARLINK-5604,1 55420U 23014AF  23226.46194108  .00002702  00000-0  24221-4 0  9990,2 55420  69.9970 262.0747 0002988 252.9423 107.1445 15.69937533 30770,6737.213,91.723,361.091,357.065,0.0
55420.0,STARLINK-5604,PAYLOAD,2023-08-14 12:36:55,15.699505,0.0003458,69.9979,261.8967,255.8225,104.2587,3.8931e-05,4.476e-05,0.0,0 STARLINK-5604,1 55420U 23014AF  23226.52564564  .00004476  00000-0  38931-4 0  9997,2 55420  69.9979 261.8967 0003458 255.8225 104.2587 15.69950500 30780,6737.176,91.723,361.37,356.711,0.0
55420.0,STARLINK-5604,PAYLOAD,2023-08-15 02:22:42,15.69931566,0.0002764,70.0005,260.2838,264.1055,95.9826,5.7492e-05,6.707e-05,0.0,0 STARLINK-5604,1 55420U 23014AF  23227.09909883  .00006707  00000-0  57492-4 0  9999,2 55420  70.0005 260.2838 0002764 264.1055  95.9826 15.69931566 30879,6737.23,91.724,360.957,357.233,0.0
55420.0,STARLINK-5604,PAYLOAD,2023-08-15 10:01:29,15.69911381,0.000341,69.9964,259.3873,275.7714,84.3093,3.6494e-05,4.175e-05,0.0,0 STARLINK-5604,1 55420U 23014AF  23227.41770002  .00004175  00000-0  36494-4 0  9990,2 55420  69.9964 259.3873 0003410 275.7714  84.3093 15.69911381 30924,6737.288,91.725,361.45,356.855,0.0
55420.0,STARLINK-5604,PAYLOAD,2023-08-16 10:29:31,15.69931464,0.0003387,69.9985,256.5234,268.3209,91.7598,-7.7768e-06,-1.148e-05,0.0,0 STARLINK-5604,1 55420U 23014AF  23228.43716598 -.00001148  00000-0 -77768-5 0  9992,2 55420  69.9985 256.5234 0003387 268.3209  91.7598 15.69931464 31081,6737.23,91.724,361.377,356.813,0.0
55420.0,STARLINK-5604,PAYLOAD,2023-08-17 10:57:33,15.69920026,0.0002938,69.9979,253.6572,277.2968,82.7894,6.6628e-07,-1.32e-06,0.0,0 STARLINK-5604,1 55420U 23014AF  23229.45663358 -.00000132  00000-0  66628-6 0  9995,2 55420  69.9979 253.6572 0002938 277.2968  82.7894 15.69920026 31248,6737.263,91.724,361.107,357.148,0.0
55420.0,STARLINK-5604,PAYLOAD,2023-08-18 11:25:35,15.69917717,0.0003073,69.9984,250.7874,275.9632,84.1213,1.4046e-05,1.476e-05,0.0,0 STARLINK-5604,1 55420U 23014AF  23230.47610210  .00001476  00000-0  14046-4 0  9994,2 55420  69.9984 250.7874 0003073 275.9632  84.1213 15.69917717 31403,6737.269,91.725,361.205,357.064,0.0
55420.0,STARLINK-5604,PAYLOAD,2023-08-19 10:21:51,15.69926883,0.0002957,69.9985,248.1044,266.623,93.4627,4.9285e-07,-1.53e-06,0.0,0 STARLINK-5604,1 55420U 23014AF  23231.43184869 -.00000153  00000-0  49285-6 0  9994,2 55420  69.9985 248.1044 0002957 266.6230  93.4627 15.69926883 31557,6737.243,91.724,361.1,357.116,0.0
55420.0,STARLINK-5604,PAYLOAD,2023-08-20 10:49:53,15.69931261,0.0002563,69.9991,245.2376,257.6951,102.3958,-5.5341e-06,-8.78e-06,0.0,0 STARLINK-5604,1 55420U 23014AF  23232.45131581 -.00000878  00000-0 -55341-5 0  9994,2 55420  69.9991 245.2376 0002563 257.6951 102.3958 15.69931261 31714,6737.231,91.724,360.822,357.369,0.0
55420.0,STARLINK-5604,PAYLOAD,2023-08-21 09:46:10,15.69919255,0.0003382,69.9984,242.5519,264.6075,95.4735,1.3052e-05,1.357e-05,0.0,0 STARLINK-5604,1 55420U 23014AF  23233.40707043  .00001357  00000-0  13052-4 0  9995,2 55420  69.9984 242.5519 0003382 264.6075  95.4735 15.69919255 31860,6737.265,91.724,361.409,356.851,0.0
55420.0,STARLINK-5604,PAYLOAD,2023-08-22 02:35:28,15.69910257,0.0005238,69.9989,240.5792,299.0008,61.0662,-1.122e-05,-1.563e-05,0.0,0 STARLINK-5604,1 55420U 23014AF  23234.10796727 -.00001563  00000-0 -11220-4 0  9996,2 55420  69.9989 240.5792 0005238 299.0008  61.0662 15.69910257 31979,6737.291,91.725,362.685,355.627,0.0
55420.0,STARLINK-5604,PAYLOAD,2023-08-22 10:14:13,15.69915799,0.000207,70.0004,239.6896,240.8475,119.2514,9.3172e-06,9.08e-06,0.0,0 STARLINK-5604,1 55420U 23014AF  23234.42654246  .00000908  00000-0  93172-5 0  9997,2 55420  70.0004 239.6896 0002070 240.8475 119.2514 15.69915799 32022,6737.275,91.725,360.535,357.745,0.0
55420.0,STARLINK-5604,PAYLOAD,2023-08-22 13:17:42,15.69937214,0.0002715,69.9988,239.3245,282.5694,77.5198,2.2869e-05,2.539e-05,0.0,0 STARLINK-5604,1 55420U 23014AF  23234.55396243  .00002539  00000-0  22869-4 0  9997,2 55420  69.9988 239.3245 0002715 282.5694  77.5198 15.69937214 32049,6737.214,91.723,360.908,357.249,0.0
55420.0,STARLINK-5604,PAYLOAD,2023-08-23 01:31:44,15.69920472,0.0003509,69.9981,237.8947,270.7188,89.3605,8.7793e-06,8.43e-06,0.0,0 STARLINK-5604,1 55420U 23014AF  23235.06370573  .00000843  00000-0  87793-5 0  9996,2 55420  69.9981 237.8947 0003509 270.7188  89.3605 15.69920472 32124,6737.262,91.724,361.491,356.762,0.0
55420.0,STARLINK-5604,PAYLOAD,2023-08-24 09:38:31,15.69919336,0.0003567,69.9987,234.1307,280.1513,79.928,2.5104e-05,2.806e-05,0.0,0 STARLINK-5604,1 55420U 23014AF  23236.40175600  .00002806  00000-0  25104-4 0  9997,2 55420  69.9987 234.1307 0003567 280.1513  79.9280 15.69919336 33279,6737.265,91.724,361.533,356.727,0.0
55420.0,STARLINK-5604,PAYLOAD,2023-08-25 02:27:47,15.69925533,0.0003342,69.999,232.1616,272.7514,87.3299,1.2596e-05,1.302e-05,0.0,0 STARLINK-5604,1 55420U 23014AF  23237.10263737  .00001302  00000-0  12596-4 0  9995,2 55420  69.9990 232.1616 0003342 272.7514  87.3299 15.69925533 32440,6737.247,91.724,361.364,356.86,0.0
55420.0,STARLINK-5604,PAYLOAD,2023-08-25 10:06:33,15.69926966,0.0003334,69.999,231.2661,272.9131,87.1684,1.3176e-05,1.372e-05,0.0,0 STARLINK-5604,1 55420U 23014AF  23237.42121978  .00001372  00000-0  13176-4 0  9992,2 55420  69.9990 231.2661 0003334 272.9131  87.1684 15.69926966 33435,6737.243,91.724,361.354,356.862,0.0
55420.0,STARLINK-5604,PAYLOAD,2023-08-25 22:20:35,15.69917881,0.0003212,69.9986,229.8324,269.848,90.2347,4.7617e-07,-1.55e-06,0.0,0 STARLINK-5604,1 55420U 23014AF  23237.93096243 -.00000155  00000-0  47617-6 0  9992,2 55420  69.9986 229.8324 0003212 269.8480  90.2347 15.69917881 32577,6737.269,91.725,361.298,356.97,0.0
55420.0,STARLINK-5604,PAYLOAD,2023-08-26 09:02:50,15.69923006,0.0002627,69.9973,228.5742,275.1588,84.9308,7.7952e-06,7.25e-06,0.0,0 STARLINK-5604,1 55420U 23014AF  23238.37697575  .00000725  00000-0  77952-5 0  9992,2 55420  69.9973 228.5742 0002627 275.1588  84.9308 15.69923006 32642,6737.254,91.724,360.889,357.349,0.0
55420.0,STARLINK-5604,PAYLOAD,2023-08-27 09:30:52,15.69924809,0.000329,69.9976,225.7101,266.6239,93.458,6.8032e-06,6.05e-06,0.0,0 STARLINK-5604,1 55420U 23014AF  23239.39644047  .00000605  00000-0  68032-5 0  9997,2 55420  69.9976 225.7101 0003290 266.6239  93.4580 15.69924809 32805,6737.249,91.724,361.331,356.898,0.0
55420.0,STARLINK-5604,PAYLOAD,2023-08-28 16:05:54,15.69948111,0.0003411,69.9983,222.1277,270.8466,89.2339,-3.4998e-05,-4.423e-05,0.0,0 STARLINK-5604,1 55420U 23014AF  23240.67076762 -.00004423  00000-0 -34998-4 0  9990,2 55420  69.9983 222.1277 0003411 270.8466  89.2339 15.69948111 33002,6737.182,91.723,361.346,356.749,0.0
55420.0,STARLINK-5604,PAYLOAD,2023-08-29 01:16:25,15.69923736,0.0003219,69.9987,221.0534,266.8765,93.2062,7.372e-06,6.74e-06,0.0,0 STARLINK-5604,1 55420U 23014AF  23241.05307651  .00000674  00000-0  73720-5 0  9996,2 55420  69.9987 221.0534 0003219 266.8765  93.2062 15.69923736 33063,6737.252,91.724,361.286,356.948,0.0
55420.0,STARLINK-5604,PAYLOAD,2023-08-29 08:55:11,15.69920177,0.0003289,69.9986,220.1574,267.3215,92.7604,2.2652e-06,6e-07,0.0,0 STARLINK-5604,1 55420U 23014AF  23241.37166356  .00000060  00000-0  22652-5 0  9993,2 55420  69.9986 220.1574 0003289 267.3215  92.7604 15.69920177 34051,6737.262,91.724,361.343,356.911,0.0
55420.0,STARLINK-5604,PAYLOAD,2023-08-30 01:44:27,15.69924823,0.0003299,69.9985,218.187,266.8332,93.2486,1.1025e-05,1.113e-05,0.0,0 STARLINK-5604,1 55420U 23014AF  23242.07254260  .00001113  00000-0  11025-4 0  9994,2 55420  69.9985 218.1870 0003299 266.8332  93.2486 15.69924823 33225,6737.249,91.724,361.337,356.891,0.0
55420.0,STARLINK-5604,PAYLOAD,2023-08-30 15:30:14,15.69920204,0.000323,69.9979,216.5756,268.6853,91.3973,3.1916e-06,1.71e-06,0.0,0 STARLINK-5604,1 55420U 23014AF  23242.64599830  .00000171  00000-0  31916-5 0  9997,2 55420  69.9979 216.5756 0003230 268.6853  91.3973 15.69920204 33315,6737.262,91.724,361.303,356.951,0.0
55420.0,STARLINK-5604,PAYLOAD,2023-08-31 08:19:29,15.69925324,0.0004546,69.9998,214.6071,263.8319,96.2359,6.8526e-06,6.11e-06,0.0,0 STARLINK-5604,1 55420U 23014AF  23243.34687489  .00000611  00000-0  68526-5 0  9999,2 55420  69.9998 214.6071 0004546 263.8319  96.2359 15.69925324 33422,6737.248,91.724,362.175,356.05,0.0
55420.0,STARLINK-5604,PAYLOAD,2023-09-01 04:12:16,15.69968835,0.0003632,69.9997,212.28,276.3375,83.7407,-7.4244e-05,-9.148e-05,0.0,0 STARLINK-5604,1 55420U 23014AF  23244.17518783 -.00009148  00000-0 -74244-4 0  9990,2 55420  69.9997 212.2800 0003632 276.3375  83.7407 15.69968835 33554,6737.123,91.722,361.435,356.541,0.0
55420.0,STARLINK-5604,PAYLOAD,2023-09-01 10:19:17,15.69929007,0.0003795,69.9995,211.5627,275.639,84.4373,1.694e-05,1.825e-05,0.0,0 STARLINK-5604,1 55420U 23014AF  23244.43005798  .00001825  00000-0  16940-4 0  9997,2 55420  69.9995 211.5627 0003795 275.6390  84.4373 15.69929007 34537,6737.237,91.724,361.659,356.545,0.0
